{"type": "FeatureCollection", "features": [ {"type": "Feature", "properties": {"norad_id": 29750, "name": "FENGYUN 1C DEB", "group": "fengyun-1c-debris", "lat": 47.40588261072544, "lon": -139.957413885449, "alt_km": 871.2729326625249, "timestamp": "2025-12-27T16:33:30.493557+00:00", "meta": {"OBJECT_NAME": "FENGYUN 1C DEB", "OBJECT_ID": "1999-025AQ", "EPOCH": "2025-12-26T20:20:49.587360", "MEAN_MOTION": 14.09656411, "ECCENTRICITY": 0.00351037, "INCLINATION": 98.7532, "RA_OF_ASC_NODE": 29.5765, "ARG_OF_PERICENTER": 260.4469, "MEAN_ANOMALY": 280.3781, "EPHEMERIS_TYPE": 0, "CLASSIFICATION_TYPE": "U", "NORAD_CAT_ID": 29750, "ELEMENT_SET_NO": 999, "REV_AT_EPOCH": 97272, "BSTAR": 0.00028831071, "MEAN_MOTION_DOT": 4.65e-06, "MEAN_MOTION_DDOT": 0}, "tle": {"line1": "1 29750U 99025AQ  25360.84779615  .00000465  00000+0  28831-3 0  9990", "line2": "2 29750  98.7532  29.5765 0035103 260.4469 280.3781 14.09656411972729"}}, "geometry": {"type": "Point", "coordinates": [-139.957413885449, 47.40588261072544]}}, {"type": "Feature", "properties": {"norad_id": 29751, "name": "FENGYUN 1C DEB", "group": "fengyun-1c-debris", "lat": -59.21944010473842, "lon": 43.74061698828995, "alt_km": 879.4794851593815, "timestamp": "2025-12-27T16:33:30.493568+00:00", "meta": {"OBJECT_NAME": "FENGYUN 1C DEB", "OBJECT_ID": "1999-025AR", "EPOCH": "2025-12-26T00:38:10.903776", "MEAN_MOTION": 14.23639457, "ECCENTRICITY": 0.00901772, "INCLINATION": 98.5402, "RA_OF_ASC_NODE": 27.5139, "ARG_OF_PERICENTER": 100.9291, "MEAN_ANOMALY": 318.8722, "EPHEMERIS_TYPE": 0, "CLASSIFICATION_TYPE": "U", "NORAD_CAT_ID": 29751, "ELEMENT_SET_NO": 999, "REV_AT_EPOCH": 98262, "BSTAR": 0.00015425778, "MEAN_MOTION_DOT": 3.25e-06, "MEAN_MOTION_DDOT": 0}, "tle": {"line1": "1 29751U 99025AR  25360.02651509  .00000325  00000+0  15426-3 0  9993", "line2": "2 29751  98.5402  27.5139 0090177 100.9291 318.8722 14.23639457982629"}}, "geometry": {"type": "Point", "coordinates": [43.74061698828995, -59.21944010473842]}}, {"type": "Feature", "properties": {"norad_id": 29754, "name": "FENGYUN 1C DEB", "group": "fengyun-1c-debris", "lat": -14.964263346698624, "lon": -77.92777273740865, "alt_km": 806.2462019318064, "timestamp": "2025-12-27T16:33:30.493578+00:00", "meta": {"OBJECT_NAME": "FENGYUN 1C DEB", "OBJECT_ID": "1999-025AU", "EPOCH": "2025-12-27T05:46:48.259776", "MEAN_MOTION": 14.1920631, "ECCENTRICITY": 0.00366826, "INCLINATION": 98.8842, "RA_OF_ASC_NODE": 104.0181, "ARG_OF_PERICENTER": 198.3626, "MEAN_ANOMALY": 223.4542, "EPHEMERIS_TYPE": 0, "CLASSIFICATION_TYPE": "U", "NORAD_CAT_ID": 29754, "ELEMENT_SET_NO": 999, "REV_AT_EPOCH": 97560, "BSTAR": 0.0010519364, "MEAN_MOTION_DOT": 2.174e-05, "MEAN_MOTION_DDOT": 0}, "tle": {"line1": "1 29754U 99025AU  25361.24083634  .00002174  00000+0  10519-2 0  9990", "line2": "2 29754  98.8842 104.0181 0036682 198.3626 223.4542 14.19206310975609"}}, "geometry": {"type": "Point", "coordinates": [-77.92777273740865, -14.964263346698624]}}, {"type": "Feature", "properties": {"norad_id": 29758, "name": "FENGYUN 1C DEB", "group": "fengyun-1c-debris", "lat": -71.07333545565645, "lon": -89.10414983904761, "alt_km": 745.9315510370207, "timestamp": "2025-12-27T16:33:30.493589+00:00", "meta": {"OBJECT_NAME": "FENGYUN 1C DEB", "OBJECT_ID": "1999-025AY", "EPOCH": "2025-12-26T06:20:56.562720", "MEAN_MOTION": 14.41189417, "ECCENTRICITY": 0.0022483, "INCLINATION": 98.8547, "RA_OF_ASC_NODE": 116.4603, "ARG_OF_PERICENTER": 266.8394, "MEAN_ANOMALY": 155.2042, "EPHEMERIS_TYPE": 0, "CLASSIFICATION_TYPE": "U", "NORAD_CAT_ID": 29758, "ELEMENT_SET_NO": 999, "REV_AT_EPOCH": 97866, "BSTAR": 0.0025928, "MEAN_MOTION_DOT": 8.353e-05, "MEAN_MOTION_DDOT": 0}, "tle": {"line1": "1 29758U 99025AY  25360.26454355  .00008353  00000+0  25928-2 0  9992", "line2": "2 29758  98.8547 116.4603 0022483 266.8394 155.2042 14.41189417978667"}}, "geometry": {"type": "Point", "coordinates": [-89.10414983904761, -71.07333545565645]}}, {"type": "Feature", "properties": {"norad_id": 29760, "name": "FENGYUN 1C DEB", "group": "fengyun-1c-debris", "lat": 11.282184760942114, "lon": 1.665888475466757, "alt_km": 913.1365520760783, "timestamp": "2025-12-27T16:33:30.493599+00:00", "meta": {"OBJECT_NAME": "FENGYUN 1C DEB", "OBJECT_ID": "1999-025BA", "EPOCH": "2025-12-27T06:16:21.674208", "MEAN_MOTION": 14.0829794, "ECCENTRICITY": 0.01314326, "INCLINATION": 98.7624, "RA_OF_ASC_NODE": 3.0128, "ARG_OF_PERICENTER": 132.7052, "MEAN_ANOMALY": 228.5275, "EPHEMERIS_TYPE": 0, "CLASSIFICATION_TYPE": "U", "NORAD_CAT_ID": 29760, "ELEMENT_SET_NO": 999, "REV_AT_EPOCH": 97297, "BSTAR": 8.5514921e-05, "MEAN_MOTION_DOT": 1.17e-06, "MEAN_MOTION_DDOT": 0}, "tle": {"line1": "1 29760U 99025BA  25361.26136197  .00000117  00000+0  85515-4 0  9997", "line2": "2 29760  98.7624   3.0128 0131432 132.7052 228.5275 14.08297940972979"}}, "geometry": {"type": "Point", "coordinates": [1.665888475466757, 11.282184760942114]}}, {"type": "Feature", "properties": {"norad_id": 29762, "name": "FENGYUN 1C DEB", "group": "fengyun-1c-debris", "lat": 29.358267692263404, "lon": -20.77127129575392, "alt_km": 831.8684984693145, "timestamp": "2025-12-27T16:33:30.493610+00:00", "meta": {"OBJECT_NAME": "FENGYUN 1C DEB", "OBJECT_ID": "1999-025BC", "EPOCH": "2025-12-27T04:54:25.180704", "MEAN_MOTION": 14.22612968, "ECCENTRICITY": 0.02033041, "INCLINATION": 98.5808, "RA_OF_ASC_NODE": 343.6278, "ARG_OF_PERICENTER": 293.4728, "MEAN_ANOMALY": 129.1145, "EPHEMERIS_TYPE": 0, "CLASSIFICATION_TYPE": "U", "NORAD_CAT_ID": 29762, "ELEMENT_SET_NO": 999, "REV_AT_EPOCH": 98154, "BSTAR": 0.00039923622, "MEAN_MOTION_DOT": 1.055e-05, "MEAN_MOTION_DDOT": 0}, "tle": {"line1": "1 29762U 99025BC  25361.20445811  .00001055  00000+0  39924-3 0  9993", "line2": "2 29762  98.5808 343.6278 0203304 293.4728 129.1145 14.22612968981547"}}, "geometry": {"type": "Point", "coordinates": [-20.77127129575392, 29.358267692263404]}}, {"type": "Feature", "properties": {"norad_id": 29763, "name": "FENGYUN 1C DEB", "group": "fengyun-1c-debris", "lat": -2.8687704138361028, "lon": 160.21575128667644, "alt_km": 802.9593641695365, "timestamp": "2025-12-27T16:33:30.493620+00:00", "meta": {"OBJECT_NAME": "FENGYUN 1C DEB", "OBJECT_ID": "1999-025BD", "EPOCH": "2025-12-26T22:56:51.632160", "MEAN_MOTION": 14.07885982, "ECCENTRICITY": 0.0128067, "INCLINATION": 98.7629, "RA_OF_ASC_NODE": 339.9463, "ARG_OF_PERICENTER": 140.4862, "MEAN_ANOMALY": 284.2488, "EPHEMERIS_TYPE": 0, "CLASSIFICATION_TYPE": "U", "NORAD_CAT_ID": 29763, "ELEMENT_SET_NO": 999, "REV_AT_EPOCH": 97250, "BSTAR": 0.00029525, "MEAN_MOTION_DOT": 4.98e-06, "MEAN_MOTION_DDOT": 0}, "tle": {"line1": "1 29763U 99025BD  25360.95615315  .00000498  00000+0  29525-3 0  9999", "line2": "2 29763  98.7629 339.9463 0128067 140.4862 284.2488 14.07885982972507"}}, "geometry": {"type": "Point", "coordinates": [160.21575128667644, -2.8687704138361028]}}, {"type": "Feature", "properties": {"norad_id": 29765, "name": "FENGYUN 1C DEB", "group": "fengyun-1c-debris", "lat": 61.150193961157775, "lon": -144.20723225301782, "alt_km": 862.3949049701832, "timestamp": "2025-12-27T16:33:30.493631+00:00", "meta": {"OBJECT_NAME": "FENGYUN 1C DEB", "OBJECT_ID": "1999-025BF", "EPOCH": "2025-12-27T07:29:39.487776", "MEAN_MOTION": 14.02151732, "ECCENTRICITY": 0.0060062, "INCLINATION": 98.8287, "RA_OF_ASC_NODE": 19.04, "ARG_OF_PERICENTER": 52.5814, "MEAN_ANOMALY": 318.9689, "EPHEMERIS_TYPE": 0, "CLASSIFICATION_TYPE": "U", "NORAD_CAT_ID": 29765, "ELEMENT_SET_NO": 999, "REV_AT_EPOCH": 96955, "BSTAR": -6.0173e-05, "MEAN_MOTION_DOT": -1.36e-06, "MEAN_MOTION_DDOT": 0}, "tle": {"line1": "1 29765U 99025BF  25361.31226259 -.00000136  00000+0 -60173-4 0  9993", "line2": "2 29765  98.8287  19.0400 0060062  52.5814 318.9689 14.02151732969550"}}, "geometry": {"type": "Point", "coordinates": [-144.20723225301782, 61.150193961157775]}}, {"type": "Feature", "properties": {"norad_id": 29766, "name": "FENGYUN 1C DEB", "group": "fengyun-1c-debris", "lat": -5.124118816537829, "lon": -48.70938382330031, "alt_km": 939.4363558209798, "timestamp": "2025-12-27T16:33:30.493642+00:00", "meta": {"OBJECT_NAME": "FENGYUN 1C DEB", "OBJECT_ID": "1999-025BG", "EPOCH": "2025-12-27T08:37:54.793344", "MEAN_MOTION": 13.97100904, "ECCENTRICITY": 0.0145472, "INCLINATION": 98.6867, "RA_OF_ASC_NODE": 310.1929, "ARG_OF_PERICENTER": 247.443, "MEAN_ANOMALY": 245.6835, "EPHEMERIS_TYPE": 0, "CLASSIFICATION_TYPE": "U", "NORAD_CAT_ID": 29766, "ELEMENT_SET_NO": 999, "REV_AT_EPOCH": 96008, "BSTAR": 0.0011123, "MEAN_MOTION_DOT": 1.657e-05, "MEAN_MOTION_DDOT": 0}, "tle": {"line1": "1 29766U 99025BG  25361.35966196  .00001657  00000+0  11123-2 0  9995", "line2": "2 29766  98.6867 310.1929 0145472 247.4430 245.6835 13.97100904960088"}}, "geometry": {"type": "Point", "coordinates": [-48.70938382330031, -5.124118816537829]}}, {"type": "Feature", "properties": {"norad_id": 29767, "name": "FENGYUN 1C DEB", "group": "fengyun-1c-debris", "lat": -42.192706311949244, "lon": 141.43489458174687, "alt_km": 1107.7330274580136, "timestamp": "2025-12-27T16:33:30.493666+00:00", "meta": {"OBJECT_NAME": "FENGYUN 1C DEB", "OBJECT_ID": "1999-025BH", "EPOCH": "2025-12-26T20:48:49.834080", "MEAN_MOTION": 14.03500988, "ECCENTRICITY": 0.0332558, "INCLINATION": 98.1994, "RA_OF_ASC_NODE": 328.2015, "ARG_OF_PERICENTER": 21.151, "MEAN_ANOMALY": 8.6506, "EPHEMERIS_TYPE": 0, "CLASSIFICATION_TYPE": "U", "NORAD_CAT_ID": 29767, "ELEMENT_SET_NO": 999, "REV_AT_EPOCH": 95798, "BSTAR": 0.0032023, "MEAN_MOTION_DOT": 8.171e-05, "MEAN_MOTION_DDOT": 0}, "tle": {"line1": "1 29767U 99025BH  25360.86724345  .00008171  00000+0  32023-2 0  9999", "line2": "2 29767  98.1994 328.2015 0332558  21.1510   8.6506 14.03500988957981"}}, "geometry": {"type": "Point", "coordinates": [141.43489458174687, -42.192706311949244]}}]}